NORAD_CAT_ID,OBJECT_NAME,OBJECT_TYPE,EPOCH,MEAN_MOTION,ECCENTRICITY,INCLINATION,RA_OF_ASC_NODE,ARG_OF_PERICENTER,MEAN_ANOMALY,BSTAR,MEAN_MOTION_DOT,MEAN_MOTION_DDOT,TLE_LINE0,TLE_LINE1,TLE_LINE2,SEMIMAJOR_AXIS,PERIOD,APOGEE,PERIGEE,DECAYED
52376.0,STARLINK-3767,PAYLOAD,2022-08-01 14:00:01,15.20081014,0.0001664,53.2173,337.3375,50.816,89.6234,-0.053084,-0.01062325,0.0,0 STARLINK-3767,1 52376U 22045AX  22213.58334491 -.01062325  00000-0 -53084-1 0  9995,2 52376  53.2173 337.3375 0001664  50.8160  89.6234 15.20081014  1302,6883.733,94.732,506.74300000000005,504.453,0.0
52376.0,STARLINK-3767,PAYLOAD,2022-08-01 22:00:00,15.19322103,0.0001469,53.2172,335.8182,64.1824,100.8953,-0.0542919999999999,-0.01062571,0.0,0 STARLINK-3767,1 52376U 22045AX  22213.91667824 -.01062571  00000-0 -54292-1 0  9996,2 52376  53.2172 335.8182 0001469  64.1824 100.8953 15.19322103  1307,6886.025,94.779,508.902,506.879,0.0
52376.0,STARLINK-3767,PAYLOAD,2022-08-02 06:00:02,15.18563267,0.0001585,53.2173,334.2991,56.5431,132.3244,-0.0556309999999999,-0.01078298,0.0,0 STARLINK-3767,1 52376U 22045AX  22214.25002315 -.01078298  00000-0 -55631-1 0  9993,2 52376  53.2173 334.2991 0001585  56.5431 132.3244 15.18563267 17337,6888.319,94.826,511.276,509.092,0.0
52376.0,STARLINK-3767,PAYLOAD,2022-08-02 14:00:01,15.17801305,0.0001738,53.2174,332.785,49.7125,161.9047,-0.056601,-0.01073533,0.0,0 STARLINK-3767,1 52376U 22045AX  22214.58334491 -.01073533  00000-0 -56601-1 0  9997,2 52376  53.2174 332.7850 0001738  49.7125 161.9047 15.17801305  1305,6890.624,94.874,513.687,511.292,0.0
52376.0,STARLINK-3767,PAYLOAD,2022-08-03 06:00:00,15.16283528,0.000156,53.2174,329.7571,54.11600000000001,200.3901,-0.059275,-0.01075947,0.0,0 STARLINK-3767,1 52376U 22045AX  22215.25001157 -.01075947  00000-0 -59275-1 0  9993,2 52376  53.2174 329.7571 0001560  54.1160 200.3901 15.16283528 17486,6895.222,94.969,518.1619999999998,516.011,0.0
52376.0,STARLINK-3767,PAYLOAD,2022-08-03 14:00:01,15.1552309,0.0001581,53.2174,328.2485,53.4968,221.0836,-0.0604409999999999,-0.01073676,0.0,0 STARLINK-3767,1 52376U 22045AX  22215.58334491 -.01073676  00000-0 -60441-1 0  9993,2 52376  53.2174 328.2485 0001581  53.4968 221.0836 15.15523090  1306,6897.528,95.017,520.4830000000002,518.302,0.0
52376.0,STARLINK-3767,PAYLOAD,2022-08-03 22:00:01,15.14766343,0.0001351,53.2173,326.7393,66.0654,227.74,-0.062064,-0.01078564,0.0,0 STARLINK-3767,1 52376U 22045AX  22215.91668981 -.01078564  00000-0 -62064-1 0  9998,2 52376  53.2173 326.7393 0001351  66.0654 227.7400 15.14766343  1302,6899.825,95.064,522.622,520.758,0.0
52376.0,STARLINK-3767,PAYLOAD,2022-08-04 06:00:00,15.14003417,0.0001359,53.2175,325.2311,62.5654,249.4286,-0.063063,-0.01072898,0.0,0 STARLINK-3767,1 52376U 22045AX  22216.25001157 -.01072898  00000-0 -63063-1 0  9996,2 52376  53.2175 325.2311 0001359  62.5654 249.4286 15.14003417 17640,6902.143,95.112,524.946,523.07,0.0
52376.0,STARLINK-3767,PAYLOAD,2022-08-04 14:00:01,15.13245611,0.0001489,53.2175,323.7279,52.7169,276.6124,-0.064572,-0.01075145,0.0,0 STARLINK-3767,1 52376U 22045AX  22216.58334491 -.01075145  00000-0 -64572-1 0  9996,2 52376  53.2175 323.7279 0001489  52.7169 276.6124 15.13245611  1304,6904.446999999999,95.16,527.34,525.284,0.0
52376.0,STARLINK-3767,PAYLOAD,2022-08-04 22:00:00,15.12487539,0.0001411,53.2173,322.2238,53.4215,292.3324,-0.066157,-0.01078044,0.0,0 STARLINK-3767,1 52376U 22045AX  22216.91667824 -.01078044  00000-0 -66157-1 0  9994,2 52376  53.2173 322.2238 0001411  53.4215 292.3324 15.12487539  1309,6906.754,95.207,529.5930000000002,527.644,0.0
52376.0,STARLINK-3767,PAYLOAD,2022-08-05 06:00:02,15.11724238,0.000144,53.2175,320.721,52.0429,309.2877,-0.067139,-0.01071416,0.0,0 STARLINK-3767,1 52376U 22045AX  22217.25002315 -.01071416  00000-0 -67139-1 0  9997,2 52376  53.2175 320.7210 0001440  52.0429 309.2877 15.11724238 17798,6909.078,95.255,531.938,529.9490000000002,0.0
52376.0,STARLINK-3767,PAYLOAD,2022-08-05 14:00:01,15.10967988,0.0001609,53.2175,319.223,45.2942,330.6332,-0.0689289999999999,-0.01076628,0.0,0 STARLINK-3767,1 52376U 22045AX  22217.58335648 -.01076628  00000-0 -68929-1 0  9999,2 52376  53.2175 319.2230 0001609  45.2942 330.6332 15.10967988  1308,6911.384,95.303,534.361,532.137,0.0
52376.0,STARLINK-3767,PAYLOAD,2022-08-05 22:00:00,15.10208237,0.000136,53.2173,317.7241,58.3935,331.1583,-0.070403,-0.01076629,0.0,0 STARLINK-3767,1 52376U 22045AX  22217.91667824 -.01076629  00000-0 -70403-1 0  9991,2 52376  53.2173 317.7241 0001360  58.3935 331.1583 15.10208237  1301,6913.701,95.351,536.507,534.626,0.0
52376.0,STARLINK-3767,PAYLOAD,2022-08-06 06:00:00,15.09445708,0.0001520999999999,53.2175,316.2268,49.735,352.592,-0.071494,-0.01070951,0.0,0 STARLINK-3767,1 52376U 22045AX  22218.25001157 -.01070951  00000-0 -71494-1 0  9993,2 52376  53.2175 316.2268 0001521  49.7350 352.5920 15.09445708 17943,6916.03,95.399,538.947,536.8430000000002,0.0
52376.0,STARLINK-3767,PAYLOAD,2022-08-06 13:46:40,15.10605545,0.0002891,53.2175,314.7583,46.0495,314.0736,-0.018525,-0.00297325,0.0,0 STARLINK-3767,1 52376U 22045AX  22218.57407747 -.00297325  00000-0 -18525-1 0  9994,2 52376  53.2175 314.7583 0002891  46.0495 314.0736 15.10605545 17999,6912.489000000001,95.326,536.352,532.356,0.0
52376.0,STARLINK-3767,PAYLOAD,2022-08-06 22:00:00,15.07806774,0.0001373,53.2174,313.2392,56.1766,8.9782,-0.045484,-0.00658942,0.0,0 STARLINK-3767,1 52376U 22045AX  22218.91667824 -.00658942  00000-0 -45484-1 0  9996,2 52376  53.2174 313.2392 0001373  56.1766   8.9782 15.07806774  1308,6921.04,95.503,543.856,541.955,0.0
52376.0,STARLINK-3767,PAYLOAD,2022-08-07 05:41:05,15.09194729,0.0001286,53.217,311.7886,95.5834,264.5305,-0.0214919999999999,-0.00330161,0.0,0 STARLINK-3767,1 52376U 22045AX  22219.23686645 -.00330161  00000-0 -21492-1 0  9997,2 52376  53.2170 311.7886 0001286  95.5834 264.5305 15.09194729 18098,6916.795999999999,95.415,539.5509999999998,537.7719999999998,0.0
52376.0,STARLINK-3767,PAYLOAD,2022-08-07 13:38:06,15.08790798,0.0002018,53.2178,310.3088,81.7974,278.3247,-0.016919,-0.00259648,0.0,0 STARLINK-3767,1 52376U 22045AX  22219.56813021 -.00259648  00000-0 -16919-1 0  9991,2 52376  53.2178 310.3088 0002018  81.7974 278.3247 15.08790798 18142,6918.031,95.441,541.2919999999998,538.5,0.0
52376.0,STARLINK-3767,PAYLOAD,2022-08-07 22:00:00,15.07259116,0.0001631,53.2167,308.7509,59.3863,35.1447,-0.005281,-0.00079892,0.0,0 STARLINK-3767,1 52376U 22045AX  22219.91667824 -.00079892  00000-0 -52810-2 0  9990,2 52376  53.2167 308.7509 0001631  59.3863  35.1447 15.07259116  1301,6922.717,95.538,545.711,543.453,0.0
52376.0,STARLINK-3767,PAYLOAD,2022-08-08 05:32:29,15.08219342,0.0001530999999999,53.2171,307.34,62.7937,297.3211,-0.012859,-0.00196062,0.0,0 STARLINK-3767,1 52376U 22045AX  22220.23089567 -.00196062  00000-0 -12859-1 0  9996,2 52376  53.2171 307.3400 0001531  62.7937 297.3211 15.08219342 18240,6919.778,95.477,542.703,540.5840000000002,0.0
52376.0,STARLINK-3767,PAYLOAD,2022-08-08 14:00:01,15.07178375,0.0001810999999999,53.2168,305.7667,59.1718,54.7269,0.0011183,0.00016768,0.0,0 STARLINK-3767,1 52376U 22045AX  22220.58335648  .00016768  00000-0  11183-2 0  9990,2 52376  53.2168 305.7667 0001811  59.1718  54.7269 15.07178375 18293,6922.964,95.543,546.0830000000002,543.575,0.0
52376.0,STARLINK-3767,PAYLOAD,2022-08-08 22:00:00,15.07212891,0.0001724,53.2167,304.2731,59.9401,63.5069,-0.001188,-0.00018325,0.0,0 STARLINK-3767,1 52376U 22045AX  22220.91667824 -.00018325  00000-0 -11880-2 0  9998,2 52376  53.2167 304.2731 0001724  59.9401  63.5069 15.07212891  1300,6922.858,95.541,545.9169999999998,543.53,0.0
52376.0,STARLINK-3767,PAYLOAD,2022-08-09 14:00:01,15.0718159,0.0001738,53.217,301.2891,55.0968,87.6156,0.00064469,9.537e-05,0.0,0 STARLINK-3767,1 52376U 22045AX  22221.58334491  .00009537  00000-0  64469-3 0  9998,2 52376  53.2170 301.2891 0001738  55.0968  87.6156 15.07181590  1303,6922.954000000002,95.543,546.0219999999998,543.616,0.0
52376.0,STARLINK-3767,PAYLOAD,2022-08-09 22:00:00,15.07192598,0.0001575999999999,53.217,299.7954,55.5559,96.7649,-0.0025378,-0.00038692,0.0,0 STARLINK-3767,1 52376U 22045AX  22221.91667824 -.00038692  00000-0 -25378-2 0  9995,2 52376  53.2170 299.7954 0001576  55.5559  96.7649 15.07192598  1303,6922.92,95.542,545.876,543.694,0.0
52376.0,STARLINK-3767,PAYLOAD,2022-08-10 14:00:01,15.07167518,0.0001706999999999,53.2172,296.8117,52.0028,119.5215,0.0020388,0.00030855,0.0,0 STARLINK-3767,1 52376U 22045AX  22222.58334491  .00030855  00000-0  20388-2 0  9997,2 52376  53.2172 296.8117 0001707  52.0028 119.5215 15.07167518  1300,6922.996999999999,95.543,546.044,543.68,0.0
52376.0,STARLINK-3767,PAYLOAD,2022-08-10 17:07:18,15.07173081,0.000169,53.2169,296.2292,50.1901,107.4528,0.0021364,0.00032358,0.0,0 STARLINK-3767,1 52376U 22045AX  22222.71341435  .00032358  00000-0  21364-2 0  9993,2 52376  53.2169 296.2292 0001690  50.1901 107.4528 15.07173081 18611,6922.98,95.543,546.015,543.675,0.0
52376.0,STARLINK-3767,PAYLOAD,2022-08-10 22:00:00,15.07198112,0.0001579,53.2171,295.318,54.8223,126.2993,-0.0011987,-0.0001848,0.0,0 STARLINK-3767,1 52376U 22045AX  22222.91667824 -.00018480  00000-0 -11987-2 0  9990,2 52376  53.2171 295.3180 0001579  54.8223 126.2993 15.07198112  1309,6922.904,95.542,545.862,543.675,0.0
52376.0,STARLINK-3767,PAYLOAD,2022-08-11 14:00:01,15.07181385,0.0001725,53.2171,292.3343,51.2599,149.1017,0.002316,0.00035124,0.0,0 STARLINK-3767,1 52376U 22045AX  22223.58334491  .00035124  00000-0  23160-2 0  9993,2 52376  53.2171 292.3343 0001725  51.2599 149.1017 15.07181385  1302,6922.955,95.543,546.014,543.626,0.0
52376.0,STARLINK-3767,PAYLOAD,2022-08-11 22:00:00,15.072119099999998,0.0001571,53.2169,290.8404,54.93899999999999,155.0423,-0.00082941,-0.00012888,0.0,0 STARLINK-3767,1 52376U 22045AX  22223.91667824 -.00012888  00000-0 -82941-3 0  9996,2 52376  53.2169 290.8404 0001571  54.9390 155.0423 15.07211910 18794,6922.861,95.541,545.814,543.639,0.0
